[
    {
        "Altitude(m)": 565808.5064704265,
        "Argument of Periapsis(deg)": -0.015068773855314936,
        "Eccentricity": 0.0,
        "Inclination(deg)": 97.0,
        "Latitude(deg)": 7.151301638300919,
        "Longitude(deg)": 139.32488398785074,
        "Mean Anomaly(deg)": 172.73359551279165,
        "RAAN(deg)": 60.00396470241234,
        "Satellite Name": "Starlink Shell 3 1724",
        "Satellite Number": 1724,
        "Semi-Major Axis(m)": 6938478.169268562,
        "Time(s)": 380
    },
    {
        "Altitude(m)": 565842.3626447732,
        "Argument of Periapsis(deg)": -0.015465320535717962,
        "Eccentricity": 0.0,
        "Inclination(deg)": 97.0,
        "Latitude(deg)": 6.526928942681512,
        "Longitude(deg)": 139.20585684024746,
        "Mean Anomaly(deg)": 173.3590717104967,
        "RAAN(deg)": 60.00406903668634,
        "Satellite Name": "Starlink Shell 3 1724",
        "Satellite Number": 1724,
        "Semi-Major Axis(m)": 6938478.169268562,
        "Time(s)": 390
    },
    {
        "Altitude(m)": 565880.5036822122,
        "Argument of Periapsis(deg)": -0.015861867216120987,
        "Eccentricity": 0.0,
        "Inclination(deg)": 97.0,
        "Latitude(deg)": 5.9025394502793596,
        "Longitude(deg)": 139.0870215508755,
        "Mean Anomaly(deg)": 173.98454790820176,
        "RAAN(deg)": 60.00417337096035,
        "Satellite Name": "Starlink Shell 3 1724",
        "Satellite Number": 1724,
        "Semi-Major Axis(m)": 6938478.169268562,
        "Time(s)": 400
    },
    {
        "Altitude(m)": 565922.9402415263,
        "Argument of Periapsis(deg)": -0.01625841389652401,
        "Eccentricity": 0.0,
        "Inclination(deg)": 97.0,
        "Latitude(deg)": 5.278136184548677,
        "Longitude(deg)": 138.9683597118285,
        "Mean Anomaly(deg)": 174.61002410590677,
        "RAAN(deg)": 60.00427770523436,
        "Satellite Name": "Starlink Shell 3 1724",
        "Satellite Number": 1724,
        "Semi-Major Axis(m)": 6938478.169268562,
        "Time(s)": 410
    },
    {
        "Altitude(m)": 565969.6809334045,
        "Argument of Periapsis(deg)": -0.016654960576927034,
        "Eccentricity": 0.0,
        "Inclination(deg)": 97.0,
        "Latitude(deg)": 4.653722165680524,
        "Longitude(deg)": 138.84985257550372,
        "Mean Anomaly(deg)": 175.23550030361181,
        "RAAN(deg)": 60.00438203950837,
        "Satellite Name": "Starlink Shell 3 1724",
        "Satellite Number": 1724,
        "Semi-Major Axis(m)": 6938478.169268562,
        "Time(s)": 420
    },
    {
        "Altitude(m)": 566020.7323127069,
        "Argument of Periapsis(deg)": -0.01705150725733006,
        "Eccentricity": 0.0,
        "Inclination(deg)": 97.0,
        "Latitude(deg)": 4.029300410772878,
        "Longitude(deg)": 138.73148154085413,
        "Mean Anomaly(deg)": 175.86097650131686,
        "RAAN(deg)": 60.004486373782385,
        "Satellite Name": "Starlink Shell 3 1724",
        "Satellite Number": 1724,
        "Semi-Major Axis(m)": 6938478.169268562,
        "Time(s)": 430
    },
    {
        "Altitude(m)": 566076.0988717774,
        "Argument of Periapsis(deg)": -0.017448053937733084,
        "Eccentricity": 0.0,
        "Inclination(deg)": 97.0,
        "Latitude(deg)": 3.404873933978113,
        "Longitude(deg)": 138.61322863993286,
        "Mean Anomaly(deg)": 176.4864526990219,
        "RAAN(deg)": 60.00459070805639,
        "Satellite Name": "Starlink Shell 3 1724",
        "Satellite Number": 1724,
        "Semi-Major Axis(m)": 6938478.169268562,
        "Time(s)": 440
    },
    {
        "Altitude(m)": 566135.7830347813,
        "Argument of Periapsis(deg)": -0.017844600618136107,
        "Eccentricity": 0.0,
        "Inclination(deg)": 97.0,
        "Latitude(deg)": 2.780445746633282,
        "Longitude(deg)": 138.4950755118221,
        "Mean Anomaly(deg)": 177.11192889672697,
        "RAAN(deg)": 60.00469504233039,
        "Satellite Name": "Starlink Shell 3 1724",
        "Satellite Number": 1724,
        "Semi-Major Axis(m)": 6938478.169268562,
        "Time(s)": 450
    },
    {
        "Altitude(m)": 566199.7851531408,
        "Argument of Periapsis(deg)": -0.018241147298539134,
        "Eccentricity": 0.0,
        "Inclination(deg)": 97.0,
        "Latitude(deg)": 2.156018857371893,
        "Longitude(deg)": 138.37700388965598,
        "Mean Anomaly(deg)": 177.73740509443203,
        "RAAN(deg)": 60.0047993766044,
        "Satellite Name": "Starlink Shell 3 1724",
        "Satellite Number": 1724,
        "Semi-Major Axis(m)": 6938478.169268562,
        "Time(s)": 460
    },
    {
        "Altitude(m)": 566268.103501966,
        "Argument of Periapsis(deg)": -0.018637693978942157,
        "Eccentricity": 0.0,
        "Inclination(deg)": 97.0,
        "Latitude(deg)": 1.5315962722220557,
        "Longitude(deg)": 138.25899608783033,
        "Mean Anomaly(deg)": 178.36288129213708,
        "RAAN(deg)": 60.004903710878416,
        "Satellite Name": "Starlink Shell 3 1724",
        "Satellite Number": 1724,
        "Semi-Major Axis(m)": 6938478.169268562,
        "Time(s)": 470
    },
    {
        "Altitude(m)": 566340.7342775854,
        "Argument of Periapsis(deg)": -0.019034240659345183,
        "Eccentricity": 0.0,
        "Inclination(deg)": 97.0,
        "Latitude(deg)": 0.9071809946955424,
        "Longitude(deg)": 138.14103397649168,
        "Mean Anomaly(deg)": 178.98835748984212,
        "RAAN(deg)": 60.00500804515242,
        "Satellite Name": "Starlink Shell 3 1724",
        "Satellite Number": 1724,
        "Semi-Major Axis(m)": 6938478.169268562,
        "Time(s)": 480
    },
    {
        "Altitude(m)": 566417.6715961164,
        "Argument of Periapsis(deg)": -0.019430787339748207,
        "Eccentricity": 0.0,
        "Inclination(deg)": 97.0,
        "Latitude(deg)": 0.2827760258661961,
        "Longitude(deg)": 138.02309946901843,
        "Mean Anomaly(deg)": 179.61383368754713,
        "RAAN(deg)": 60.00511237942644,
        "Satellite Name": "Starlink Shell 3 1724",
        "Satellite Number": 1724,
        "Semi-Major Axis(m)": 6938478.169268562,
        "Time(s)": 490
    },
    {
        "Altitude(m)": 566498.9074930835,
        "Argument of Periapsis(deg)": -0.019827334020151237,
        "Eccentricity": 0.0,
        "Inclination(deg)": 97.0,
        "Latitude(deg)": -0.34161563555758473,
        "Longitude(deg)": 137.90517500958723,
        "Mean Anomaly(deg)": 180.23930988525223,
        "RAAN(deg)": 60.005216713700435,
        "Satellite Name": "Starlink Shell 3 1724",
        "Satellite Number": 1724,
        "Semi-Major Axis(m)": 6938478.169268562,
        "Time(s)": 500
    },
    {
        "Altitude(m)": 566584.4319241267,
        "Argument of Periapsis(deg)": -0.020223880700554257,
        "Eccentricity": 0.0,
        "Inclination(deg)": 97.0,
        "Latitude(deg)": -0.9659909931613508,
        "Longitude(deg)": 137.78724254791933,
        "Mean Anomaly(deg)": 180.86478608295718,
        "RAAN(deg)": 60.00532104797445,
        "Satellite Name": "Starlink Shell 3 1724",
        "Satellite Number": 1724,
        "Semi-Major Axis(m)": 6938478.169268562,
        "Time(s)": 510
    },
    {
        "Altitude(m)": 566674.2327667305,
        "Argument of Periapsis(deg)": -0.020620427380957283,
        "Eccentricity": 0.0,
        "Inclination(deg)": 97.0,
        "Latitude(deg)": -1.5903470527564127,
        "Longitude(deg)": 137.6692840269196,
        "Mean Anomaly(deg)": 181.49026228066225,
        "RAAN(deg)": 60.005425382248454,
        "Satellite Name": "Starlink Shell 3 1724",
        "Satellite Number": 1724,
        "Semi-Major Axis(m)": 6938478.169268562,
        "Time(s)": 520
    },
    {
        "Altitude(m)": 566768.2958230318,
        "Argument of Periapsis(deg)": -0.021016974061360306,
        "Eccentricity": 0.0,
        "Inclination(deg)": 97.0,
        "Latitude(deg)": -2.2146808223089423,
        "Longitude(deg)": 137.55128187030314,
        "Mean Anomaly(deg)": 182.1157384783673,
        "RAAN(deg)": 60.005529716522474,
        "Satellite Name": "Starlink Shell 3 1724",
        "Satellite Number": 1724,
        "Semi-Major Axis(m)": 6938478.169268562,
        "Time(s)": 530
    },
    {
        "Altitude(m)": 566866.6048236926,
        "Argument of Periapsis(deg)": -0.021413520741763333,
        "Eccentricity": 0.0,
        "Inclination(deg)": 97.0,
        "Latitude(deg)": -2.838989311863568,
        "Longitude(deg)": 137.43321795730319,
        "Mean Anomaly(deg)": 182.7412146760723,
        "RAAN(deg)": 60.00563405079649,
        "Satellite Name": "Starlink Shell 3 1724",
        "Satellite Number": 1724,
        "Semi-Major Axis(m)": 6938478.169268562,
        "Time(s)": 540
    },
    {
        "Altitude(m)": 566969.1414327922,
        "Argument of Periapsis(deg)": -0.021810067422166356,
        "Eccentricity": 0.0,
        "Inclination(deg)": 97.0,
        "Latitude(deg)": -3.4632695334615637,
        "Longitude(deg)": 137.3150741101733,
        "Mean Anomaly(deg)": 183.36669087377737,
        "RAAN(deg)": 60.005738385070494,
        "Satellite Name": "Starlink Shell 3 1724",
        "Satellite Number": 1724,
        "Semi-Major Axis(m)": 6938478.169268562,
        "Time(s)": 550
    },
    {
        "Altitude(m)": 567075.885253797,
        "Argument of Periapsis(deg)": -0.022206614102569383,
        "Eccentricity": 0.0,
        "Inclination(deg)": 97.0,
        "Latitude(deg)": -4.087518501049068,
        "Longitude(deg)": 137.1968325815788,
        "Mean Anomaly(deg)": 183.9921670714824,
        "RAAN(deg)": 60.0058427193445,
        "Satellite Name": "Starlink Shell 3 1724",
        "Satellite Number": 1724,
        "Semi-Major Axis(m)": 6938478.169268562,
        "Time(s)": 560
    }
]